0 VANGUARD 1
1 00005U 58002B   23058.76263124  .00000220  00000-0  29748-3 0  9996
2 00005  34.2468  72.5672 1845674 106.8928 274.1389 10.85066383312271